[
    {
        "Altitude(m)": 604221.2262803438,
        "Argument of Periapsis(deg)": 0.0,
        "Eccentricity": 0.0,
        "Inclination(deg)": 60.0,
        "Latitude(deg)": 14.117371045234686,
        "Longitude(deg)": 128.33416276783257,
        "Mean Anomaly(deg)": 16.363599999999984,
        "RAAN(deg)": 220.00000000000003,
        "Satellite Name": "Test1 969",
        "Satellite Number": 969,
        "Semi-Major Axis(m)": 6980739.136638005,
        "Time(s)": 0
    },
    {
        "Altitude(m)": 604235.3679190541,
        "Argument of Periapsis(deg)": 0.00010418945913296404,
        "Eccentricity": 0.0,
        "Inclination(deg)": 60.0,
        "Latitude(deg)": 14.651767619028877,
        "Longitude(deg)": 128.62261022924648,
        "Mean Anomaly(deg)": 16.983706145461838,
        "RAAN(deg)": 219.99957995086027,
        "Satellite Name": "Test1 969",
        "Satellite Number": 969,
        "Semi-Major Axis(m)": 6980739.136638005,
        "Time(s)": 10
    }
]